GLOBALSTAR M070         
1 32264U 07048B   24271.08474917 -.00000078  00000+0  14119-3 0  9996
2 32264  51.9741 210.0103 0000301  57.3539 315.7415 12.62300991781420
GLOBALSTAR M066         
1 32265U 07048C   24271.18260241 -.00000072  00000+0  18242-3 0  9996
2 32265  51.9672  74.0288 0001283  31.9301 139.1546 12.53546485783617
GLOBALSTAR M068         
1 32266U 07048D   24270.57205810 -.00000063  00000+0  22576-3 0  9995
2 32266  51.9909  25.8287 0000268 243.9156 129.0199 12.62800773784255
GLOBALSTAR M074         
1 37189U 10054B   24270.62342562 -.00000095  00000+0  46675-4 0  9999
2 37189  52.0003 221.4755 0000517  71.4447  99.6826 12.62289307643773
GLOBALSTAR M076         
1 37190U 10054C   24271.19076800 -.00000083  00000+0  11332-3 0  9991
2 37190  52.0020 219.9035 0000759  92.0481  13.4672 12.62270552643924
GLOBALSTAR M077         
1 37191U 10054D   24270.68206642 -.00000078  00000+0  14197-3 0  9990
2 37191  52.0062 178.2309 0000643  67.7714 306.5114 12.62264348643879
